{"type": "FeatureCollection", "features": [ {"type": "Feature", "properties": {"norad_id": 41828, "name": "FENGYUN 1C DEB", "group": "fengyun-1c-debris", "lat": 35.36612637932742, "lon": 113.69631436897983, "alt_km": 732.8825561285794, "timestamp": "2025-12-17T17:50:19.541233+00:00", "meta": {"OBJECT_NAME": "FENGYUN 1C DEB", "OBJECT_ID": "1999-025EYF", "EPOCH": "2025-12-17T07:44:56.778432", "MEAN_MOTION": 14.51865425, "ECCENTRICITY": 0.00385418, "INCLINATION": 98.9226, "RA_OF_ASC_NODE": 119.6523, "ARG_OF_PERICENTER": 162.6173, "MEAN_ANOMALY": 197.635, "EPHEMERIS_TYPE": 0, "CLASSIFICATION_TYPE": "U", "NORAD_CAT_ID": 41828, "ELEMENT_SET_NO": 999, "REV_AT_EPOCH": 47530, "BSTAR": 0.0035818934, "MEAN_MOTION_DOT": 0.00014547, "MEAN_MOTION_DDOT": 0}, "tle": {"line1": "1 41828U 99025EYF 25351.32287938  .00014547  00000+0  35819-2 0  9994", "line2": "2 41828  98.9226 119.6523 0038541 162.6173 197.6350 14.51865425475306"}}, "geometry": {"type": "Point", "coordinates": [113.69631436897983, 35.36612637932742]}}, {"type": "Feature", "properties": {"norad_id": 41829, "name": "FENGYUN 1C DEB", "group": "fengyun-1c-debris", "lat": 11.382251792379202, "lon": -117.28466895461322, "alt_km": 776.3838596752239, "timestamp": "2025-12-17T17:50:19.541243+00:00", "meta": {"OBJECT_NAME": "FENGYUN 1C DEB", "OBJECT_ID": "1999-025EYG", "EPOCH": "2025-12-17T03:34:05.754144", "MEAN_MOTION": 14.25152419, "ECCENTRICITY": 0.00566846, "INCLINATION": 98.7448, "RA_OF_ASC_NODE": 60.3472, "ARG_OF_PERICENTER": 206.4041, "MEAN_ANOMALY": 153.4247, "EPHEMERIS_TYPE": 0, "CLASSIFICATION_TYPE": "U", "NORAD_CAT_ID": 41829, "ELEMENT_SET_NO": 999, "REV_AT_EPOCH": 47370, "BSTAR": 0.0011882854, "MEAN_MOTION_DOT": 2.793e-05, "MEAN_MOTION_DDOT": 0}, "tle": {"line1": "1 41829U 99025EYG 25351.14867771  .00002793  00000+0  11883-2 0  9999", "line2": "2 41829  98.7448  60.3472 0056684 206.4041 153.4247 14.25152419473705"}}, "geometry": {"type": "Point", "coordinates": [-117.28466895461322, 11.382251792379202]}}, {"type": "Feature", "properties": {"norad_id": 41830, "name": "FENGYUN 1C DEB", "group": "fengyun-1c-debris", "lat": 11.93018063789825, "lon": 61.85863991653655, "alt_km": 843.5186265232251, "timestamp": "2025-12-17T17:50:19.541253+00:00", "meta": {"OBJECT_NAME": "FENGYUN 1C DEB", "OBJECT_ID": "1999-025EYH", "EPOCH": "2025-12-17T04:18:51.810048", "MEAN_MOTION": 14.26485028, "ECCENTRICITY": 0.00548787, "INCLINATION": 98.7536, "RA_OF_ASC_NODE": 63.1609, "ARG_OF_PERICENTER": 204.0728, "MEAN_ANOMALY": 155.7886, "EPHEMERIS_TYPE": 0, "CLASSIFICATION_TYPE": "U", "NORAD_CAT_ID": 41830, "ELEMENT_SET_NO": 999, "REV_AT_EPOCH": 47337, "BSTAR": 0.0013295254, "MEAN_MOTION_DOT": 3.21e-05, "MEAN_MOTION_DDOT": 0}, "tle": {"line1": "1 41830U 99025EYH 25351.17976632  .00003210  00000+0  13295-2 0  9995", "line2": "2 41830  98.7536  63.1609 0054878 204.0728 155.7886 14.26485028473370"}}, "geometry": {"type": "Point", "coordinates": [61.85863991653655, 11.93018063789825]}}, {"type": "Feature", "properties": {"norad_id": 41831, "name": "FENGYUN 1C DEB", "group": "fengyun-1c-debris", "lat": 15.86271368179363, "lon": -118.92366609305695, "alt_km": 780.6905604097419, "timestamp": "2025-12-17T17:50:19.541263+00:00", "meta": {"OBJECT_NAME": "FENGYUN 1C DEB", "OBJECT_ID": "1999-025EYJ", "EPOCH": "2025-12-17T03:35:00.891168", "MEAN_MOTION": 14.24598395, "ECCENTRICITY": 0.0056458, "INCLINATION": 98.735, "RA_OF_ASC_NODE": 57.9818, "ARG_OF_PERICENTER": 208.5634, "MEAN_ANOMALY": 151.2449, "EPHEMERIS_TYPE": 0, "CLASSIFICATION_TYPE": "U", "NORAD_CAT_ID": 41831, "ELEMENT_SET_NO": 999, "REV_AT_EPOCH": 47322, "BSTAR": 0.001227916, "MEAN_MOTION_DOT": 2.856e-05, "MEAN_MOTION_DDOT": 0}, "tle": {"line1": "1 41831U 99025EYJ 25351.14931587  .00002856  00000+0  12279-2 0  9999", "line2": "2 41831  98.7350  57.9818 0056458 208.5634 151.2449 14.24598395473229"}}, "geometry": {"type": "Point", "coordinates": [-118.92366609305695, 15.86271368179363]}}, {"type": "Feature", "properties": {"norad_id": 41832, "name": "FENGYUN 1C DEB", "group": "fengyun-1c-debris", "lat": -32.69949373601018, "lon": -129.9272537254146, "alt_km": 776.9504942626572, "timestamp": "2025-12-17T17:50:19.541273+00:00", "meta": {"OBJECT_NAME": "FENGYUN 1C DEB", "OBJECT_ID": "1999-025EYK", "EPOCH": "2025-12-16T03:44:50.125344", "MEAN_MOTION": 14.24261814, "ECCENTRICITY": 0.00557521, "INCLINATION": 98.7296, "RA_OF_ASC_NODE": 54.1571, "ARG_OF_PERICENTER": 215.826, "MEAN_ANOMALY": 143.9174, "EPHEMERIS_TYPE": 0, "CLASSIFICATION_TYPE": "U", "NORAD_CAT_ID": 41832, "ELEMENT_SET_NO": 999, "REV_AT_EPOCH": 47399, "BSTAR": 0.0011453082, "MEAN_MOTION_DOT": 2.642e-05, "MEAN_MOTION_DDOT": 0}, "tle": {"line1": "1 41832U 99025EYK 25350.15613571  .00002642  00000+0  11453-2 0  9996", "line2": "2 41832  98.7296  54.1571 0055752 215.8260 143.9174 14.24261814473996"}}, "geometry": {"type": "Point", "coordinates": [-129.9272537254146, -32.69949373601018]}}, {"type": "Feature", "properties": {"norad_id": 41833, "name": "FENGYUN 1C DEB", "group": "fengyun-1c-debris", "lat": 81.14112591081408, "lon": -19.805967520927993, "alt_km": 817.8776934085199, "timestamp": "2025-12-17T17:50:19.541283+00:00", "meta": {"OBJECT_NAME": "FENGYUN 1C DEB", "OBJECT_ID": "1999-025EYL", "EPOCH": "2025-12-17T03:56:50.360064", "MEAN_MOTION": 14.25846667, "ECCENTRICITY": 0.00546637, "INCLINATION": 98.7485, "RA_OF_ASC_NODE": 60.7225, "ARG_OF_PERICENTER": 210.6972, "MEAN_ANOMALY": 149.1006, "EPHEMERIS_TYPE": 0, "CLASSIFICATION_TYPE": "U", "NORAD_CAT_ID": 41833, "ELEMENT_SET_NO": 999, "REV_AT_EPOCH": 47427, "BSTAR": 0.0013641319, "MEAN_MOTION_DOT": 3.253e-05, "MEAN_MOTION_DDOT": 0}, "tle": {"line1": "1 41833U 99025EYL 25351.16447176  .00003253  00000+0  13641-2 0  9995", "line2": "2 41833  98.7485  60.7225 0054663 210.6972 149.1006 14.25846667474279"}}, "geometry": {"type": "Point", "coordinates": [-19.805967520927993, 81.14112591081408]}}, {"type": "Feature", "properties": {"norad_id": 43213, "name": "FENGYUN 1C DEB", "group": "fengyun-1c-debris", "lat": -75.21340696834773, "lon": -159.50945174492088, "alt_km": 791.3904033678436, "timestamp": "2025-12-17T17:50:19.541293+00:00", "meta": {"OBJECT_NAME": "FENGYUN 1C DEB", "OBJECT_ID": "1999-025EYM", "EPOCH": "2025-12-17T03:08:21.247008", "MEAN_MOTION": 14.2388501, "ECCENTRICITY": 0.0055226, "INCLINATION": 98.7346, "RA_OF_ASC_NODE": 55.5036, "ARG_OF_PERICENTER": 214.6618, "MEAN_ANOMALY": 145.0957, "EPHEMERIS_TYPE": 0, "CLASSIFICATION_TYPE": "U", "NORAD_CAT_ID": 43213, "ELEMENT_SET_NO": 999, "REV_AT_EPOCH": 40435, "BSTAR": 0.0012006614, "MEAN_MOTION_DOT": 2.75e-05, "MEAN_MOTION_DDOT": 0}, "tle": {"line1": "1 43213U 99025EYM 25351.13080147  .00002750  00000+0  12007-2 0  9993", "line2": "2 43213  98.7346  55.5036 0055226 214.6618 145.0957 14.23885010404353"}}, "geometry": {"type": "Point", "coordinates": [-159.50945174492088, -75.21340696834773]}}, {"type": "Feature", "properties": {"norad_id": 43214, "name": "FENGYUN 1C DEB", "group": "fengyun-1c-debris", "lat": -7.750429261244857, "lon": -124.77500956106387, "alt_km": 778.7596753133093, "timestamp": "2025-12-17T17:50:19.541303+00:00", "meta": {"OBJECT_NAME": "FENGYUN 1C DEB", "OBJECT_ID": "1999-025EYN", "EPOCH": "2025-12-16T22:24:33.838272", "MEAN_MOTION": 14.24159642, "ECCENTRICITY": 0.00557213, "INCLINATION": 98.7362, "RA_OF_ASC_NODE": 55.6196, "ARG_OF_PERICENTER": 214.8459, "MEAN_ANOMALY": 144.9066, "EPHEMERIS_TYPE": 0, "CLASSIFICATION_TYPE": "U", "NORAD_CAT_ID": 43214, "ELEMENT_SET_NO": 999, "REV_AT_EPOCH": 40463, "BSTAR": 0.0012017491, "MEAN_MOTION_DOT": 2.769e-05, "MEAN_MOTION_DDOT": 0}, "tle": {"line1": "1 43214U 99025EYN 25350.93372498  .00002769  00000+0  12017-2 0  9995", "line2": "2 43214  98.7362  55.6196 0055721 214.8459 144.9066 14.24159642404631"}}, "geometry": {"type": "Point", "coordinates": [-124.77500956106387, -7.750429261244857]}}, {"type": "Feature", "properties": {"norad_id": 43358, "name": "FENGYUN 1C DEB", "group": "fengyun-1c-debris", "lat": -40.62308986556047, "lon": -76.46489969826015, "alt_km": 875.6529329998739, "timestamp": "2025-12-17T17:50:19.541313+00:00", "meta": {"OBJECT_NAME": "FENGYUN 1C DEB", "OBJECT_ID": "1999-025EYP", "EPOCH": "2025-12-17T07:47:17.186208", "MEAN_MOTION": 13.40384793, "ECCENTRICITY": 0.03677263, "INCLINATION": 98.6873, "RA_OF_ASC_NODE": 110.7106, "ARG_OF_PERICENTER": 191.1706, "MEAN_ANOMALY": 168.1096, "EPHEMERIS_TYPE": 0, "CLASSIFICATION_TYPE": "U", "NORAD_CAT_ID": 43358, "ELEMENT_SET_NO": 999, "REV_AT_EPOCH": 53792, "BSTAR": 0.0016856187, "MEAN_MOTION_DOT": 1.336e-05, "MEAN_MOTION_DDOT": 0}, "tle": {"line1": "1 43358U 99025EYP 25351.32450447  .00001336  00000+0  16856-2 0  9993", "line2": "2 43358  98.6873 110.7106 0367726 191.1706 168.1096 13.40384793537927"}}, "geometry": {"type": "Point", "coordinates": [-76.46489969826015, -40.62308986556047]}}, {"type": "Feature", "properties": {"norad_id": 43359, "name": "FENGYUN 1C DEB", "group": "fengyun-1c-debris", "lat": 70.19509538031308, "lon": 45.59022292670459, "alt_km": 791.1472116470713, "timestamp": "2025-12-17T17:50:19.541323+00:00", "meta": {"OBJECT_NAME": "FENGYUN 1C DEB", "OBJECT_ID": "1999-025EYQ", "EPOCH": "2025-12-17T04:00:21.064608", "MEAN_MOTION": 14.2320088, "ECCENTRICITY": 0.0073387, "INCLINATION": 99.0542, "RA_OF_ASC_NODE": 71.2795, "ARG_OF_PERICENTER": 1.8673, "MEAN_ANOMALY": 358.2765, "EPHEMERIS_TYPE": 0, "CLASSIFICATION_TYPE": "U", "NORAD_CAT_ID": 43359, "ELEMENT_SET_NO": 999, "REV_AT_EPOCH": 47812, "BSTAR": 0.0015881135, "MEAN_MOTION_DOT": 3.646e-05, "MEAN_MOTION_DDOT": 0}, "tle": {"line1": "1 43359U 99025EYQ 25351.16691047  .00003646  00000+0  15881-2 0  9992", "line2": "2 43359  99.0542  71.2795 0073387   1.8673 358.2765 14.23200880478125"}}, "geometry": {"type": "Point", "coordinates": [45.59022292670459, 70.19509538031308]}}]}